0 IRIDIUM 126
1 42809U 17039G   24004.50693910  .00000331  00000-0  11109-3 0  9998
2 42809  86.3971   7.5332 0002539  89.9640 270.1847 14.34217098341718
0 IRIDIUM 124
1 42810U 17039H   24003.92188453  .00000466  00000-0  13263-3 0  9998
2 42810  86.4499 304.5330 0002031  80.6296 279.5134 14.43269292345984
0 IRIDIUM 128
1 42811U 17039J   24004.49766536  .00000311  00000-0  10381-3 0  9993
2 42811  86.3957  39.0536 0002281  91.5339 268.6118 14.34219776341740
0 IRIDIUM 121
1 42812U 17039K   24003.96781953  .00000333  00000-0  11195-3 0  9993
2 42812  86.3971   7.7805 0002269  92.1427 268.0028 14.34217222341512
0 IRIDIUM 133
1 42955U 17061A   24003.62239065  .00000258  00000-0  85208-4 0  9994
2 42955  86.3960  39.5155 0002326  95.0264 265.1198 14.34216388326414
0 IRIDIUM 100
1 42956U 17061B   24004.45327154  .00000282  00000-0  93562-4 0  9993
2 42956  86.3959  39.1077 0002232  91.7994 268.3458 14.34217066326554
0 IRIDIUM 122
1 42957U 17061C   24004.14248540  .00000295  00000-0  98294-4 0  9992
2 42957  86.3958  39.2355 0002297  88.7396 271.4063 14.34217969326499
0 IRIDIUM 129
1 42958U 17061D   24003.60970459  .00000285  00000-0  94690-4 0  9999
2 42958  86.3959  39.5161 0002351  90.7655 269.3811 14.34219572326434
