<?xml version="1.0" encoding="UTF-8"?>
<ndm xmlns:xsi="http://www.w3.org/2001/XMLSchema-instance" xsi:noNamespaceSchemaLocation="https://sanaregistry.org/r/ndmxml_unqualified/ndmxml-2.0.0-master-2.0.xsd">
<omm id="CCSDS_OMM_VERS" version="2.0">
<header><CREATION_DATE/><ORIGINATOR/></header><body><segment><metadata><OBJECT_NAME>IRIDIUM 126</OBJECT_NAME><OBJECT_ID>2017-039G</OBJECT_ID><CENTER_NAME>EARTH</CENTER_NAME><REF_FRAME>TEME</REF_FRAME><TIME_SYSTEM>UTC</TIME_SYSTEM><MEAN_ELEMENT_THEORY>SGP4</MEAN_ELEMENT_THEORY></metadata><data><meanElements><EPOCH>2024-01-04T12:09:59.538240</EPOCH><MEAN_MOTION>14.34217098</MEAN_MOTION><ECCENTRICITY>.0002539</ECCENTRICITY><INCLINATION>86.3971</INCLINATION><RA_OF_ASC_NODE>7.5332</RA_OF_ASC_NODE><ARG_OF_PERICENTER>89.9640</ARG_OF_PERICENTER><MEAN_ANOMALY>270.1847</MEAN_ANOMALY></meanElements><tleParameters><EPHEMERIS_TYPE>0</EPHEMERIS_TYPE><CLASSIFICATION_TYPE>U</CLASSIFICATION_TYPE><NORAD_CAT_ID>42809</NORAD_CAT_ID><ELEMENT_SET_NO>999</ELEMENT_SET_NO><REV_AT_EPOCH>34172</REV_AT_EPOCH><BSTAR>.11109E-3</BSTAR><MEAN_MOTION_DOT>.331E-5</MEAN_MOTION_DOT><MEAN_MOTION_DDOT>0</MEAN_MOTION_DDOT></tleParameters></data></segment></body></omm>
<omm id="CCSDS_OMM_VERS" version="2.0">
<header><CREATION_DATE/><ORIGINATOR/></header><body><segment><metadata><OBJECT_NAME>IRIDIUM 124</OBJECT_NAME><OBJECT_ID>2017-039H</OBJECT_ID><CENTER_NAME>EARTH</CENTER_NAME><REF_FRAME>TEME</REF_FRAME><TIME_SYSTEM>UTC</TIME_SYSTEM><MEAN_ELEMENT_THEORY>SGP4</MEAN_ELEMENT_THEORY></metadata><data><meanElements><EPOCH>2024-01-03T22:07:30.823392</EPOCH><MEAN_MOTION>14.43269292</MEAN_MOTION><ECCENTRICITY>.0002031</ECCENTRICITY><INCLINATION>86.4499</INCLINATION><RA_OF_ASC_NODE>304.5330</RA_OF_ASC_NODE><ARG_OF_PERICENTER>80.6296</ARG_OF_PERICENTER><MEAN_ANOMALY>279.5134</MEAN_ANOMALY></meanElements><tleParameters><EPHEMERIS_TYPE>0</EPHEMERIS_TYPE><CLASSIFICATION_TYPE>U</CLASSIFICATION_TYPE><NORAD_CAT_ID>42810</NORAD_CAT_ID><ELEMENT_SET_NO>999</ELEMENT_SET_NO><REV_AT_EPOCH>34598</REV_AT_EPOCH><BSTAR>.13263E-3</BSTAR><MEAN_MOTION_DOT>.466E-5</MEAN_MOTION_DOT><MEAN_MOTION_DDOT>0</MEAN_MOTION_DDOT></tleParameters></data></segment></body></omm>
<omm id="CCSDS_OMM_VERS" version="2.0">
<header><CREATION_DATE/><ORIGINATOR/></header><body><segment><metadata><OBJECT_NAME>IRIDIUM 128</OBJECT_NAME><OBJECT_ID>2017-039J</OBJECT_ID><CENTER_NAME>EARTH</CENTER_NAME><REF_FRAME>TEME</REF_FRAME><TIME_SYSTEM>UTC</TIME_SYSTEM><MEAN_ELEMENT_THEORY>SGP4</MEAN_ELEMENT_THEORY></metadata><data><meanElements><EPOCH>2024-01-04T11:56:38.287104</EPOCH><MEAN_MOTION>14.34219776</MEAN_MOTION><ECCENTRICITY>.0002281</ECCENTRICITY><INCLINATION>86.3957</INCLINATION><RA_OF_ASC_NODE>39.0536</RA_OF_ASC_NODE><ARG_OF_PERICENTER>91.5339</ARG_OF_PERICENTER><MEAN_ANOMALY>268.6118</MEAN_ANOMALY></meanElements><tleParameters><EPHEMERIS_TYPE>0</EPHEMERIS_TYPE><CLASSIFICATION_TYPE>U</CLASSIFICATION_TYPE><NORAD_CAT_ID>42811</NORAD_CAT_ID><ELEMENT_SET_NO>999</ELEMENT_SET_NO><REV_AT_EPOCH>34174</REV_AT_EPOCH><BSTAR>.10381E-3</BSTAR><MEAN_MOTION_DOT>.311E-5</MEAN_MOTION_DOT><MEAN_MOTION_DDOT>0</MEAN_MOTION_DDOT></tleParameters></data></segment></body></omm>
<omm id="CCSDS_OMM_VERS" version="2.0">
<header><CREATION_DATE/><ORIGINATOR/></header><body><segment><metadata><OBJECT_NAME>IRIDIUM 121</OBJECT_NAME><OBJECT_ID>2017-039K</OBJECT_ID><CENTER_NAME>EARTH</CENTER_NAME><REF_FRAME>TEME</REF_FRAME><TIME_SYSTEM>UTC</TIME_SYSTEM><MEAN_ELEMENT_THEORY>SGP4</MEAN_ELEMENT_THEORY></metadata><data><meanElements><EPOCH>2024-01-03T23:13:39.607392</EPOCH><MEAN_MOTION>14.34217222</MEAN_MOTION><ECCENTRICITY>.0002269</ECCENTRICITY><INCLINATION>86.3971</INCLINATION><RA_OF_ASC_NODE>7.7805</RA_OF_ASC_NODE><ARG_OF_PERICENTER>92.1427</ARG_OF_PERICENTER><MEAN_ANOMALY>268.0028</MEAN_ANOMALY></meanElements><tleParameters><EPHEMERIS_TYPE>0</EPHEMERIS_TYPE><CLASSIFICATION_TYPE>U</CLASSIFICATION_TYPE><NORAD_CAT_ID>42812</NORAD_CAT_ID><ELEMENT_SET_NO>999</ELEMENT_SET_NO><REV_AT_EPOCH>34151</REV_AT_EPOCH><BSTAR>.11195E-3</BSTAR><MEAN_MOTION_DOT>.333E-5</MEAN_MOTION_DOT><MEAN_MOTION_DDOT>0</MEAN_MOTION_DDOT></tleParameters></data></segment></body></omm>
<omm id="CCSDS_OMM_VERS" version="2.0">
<header><CREATION_DATE/><ORIGINATOR/></header><body><segment><metadata><OBJECT_NAME>IRIDIUM 133</OBJECT_NAME><OBJECT_ID>2017-061A</OBJECT_ID><CENTER_NAME>EARTH</CENTER_NAME><REF_FRAME>TEME</REF_FRAME><TIME_SYSTEM>UTC</TIME_SYSTEM><MEAN_ELEMENT_THEORY>SGP4</MEAN_ELEMENT_THEORY></metadata><data><meanElements><EPOCH>2024-01-03T14:56:14.552160</EPOCH><MEAN_MOTION>14.34216388</MEAN_MOTION><ECCENTRICITY>.0002326</ECCENTRICITY><INCLINATION>86.3960</INCLINATION><RA_OF_ASC_NODE>39.5155</RA_OF_ASC_NODE><ARG_OF_PERICENTER>95.0264</ARG_OF_PERICENTER><MEAN_ANOMALY>265.1198</MEAN_ANOMALY></meanElements><tleParameters><EPHEMERIS_TYPE>0</EPHEMERIS_TYPE><CLASSIFICATION_TYPE>U</CLASSIFICATION_TYPE><NORAD_CAT_ID>42955</NORAD_CAT_ID><ELEMENT_SET_NO>999</ELEMENT_SET_NO><REV_AT_EPOCH>32641</REV_AT_EPOCH><BSTAR>.85208E-4</BSTAR><MEAN_MOTION_DOT>.258E-5</MEAN_MOTION_DOT><MEAN_MOTION_DDOT>0</MEAN_MOTION_DDOT></tleParameters></data></segment></body></omm>
<omm id="CCSDS_OMM_VERS" version="2.0">
<header><CREATION_DATE/><ORIGINATOR/></header><body><segment><metadata><OBJECT_NAME>IRIDIUM 100</OBJECT_NAME><OBJECT_ID>2017-061B</OBJECT_ID><CENTER_NAME>EARTH</CENTER_NAME><REF_FRAME>TEME</REF_FRAME><TIME_SYSTEM>UTC</TIME_SYSTEM><MEAN_ELEMENT_THEORY>SGP4</MEAN_ELEMENT_THEORY></metadata><data><meanElements><EPOCH>2024-01-04T10:52:42.661056</EPOCH><MEAN_MOTION>14.34217066</MEAN_MOTION><ECCENTRICITY>.0002232</ECCENTRICITY><INCLINATION>86.3959</INCLINATION><RA_OF_ASC_NODE>39.1077</RA_OF_ASC_NODE><ARG_OF_PERICENTER>91.7994</ARG_OF_PERICENTER><MEAN_ANOMALY>268.3458</MEAN_ANOMALY></meanElements><tleParameters><EPHEMERIS_TYPE>0</EPHEMERIS_TYPE><CLASSIFICATION_TYPE>U</CLASSIFICATION_TYPE><NORAD_CAT_ID>42956</NORAD_CAT_ID><ELEMENT_SET_NO>999</ELEMENT_SET_NO><REV_AT_EPOCH>32655</REV_AT_EPOCH><BSTAR>.93562E-4</BSTAR><MEAN_MOTION_DOT>.282E-5</MEAN_MOTION_DOT><MEAN_MOTION_DDOT>0</MEAN_MOTION_DDOT></tleParameters></data></segment></body></omm>
<omm id="CCSDS_OMM_VERS" version="2.0">
<header><CREATION_DATE/><ORIGINATOR/></header><body><segment><metadata><OBJECT_NAME>IRIDIUM 122</OBJECT_NAME><OBJECT_ID>2017-061C</OBJECT_ID><CENTER_NAME>EARTH</CENTER_NAME><REF_FRAME>TEME</REF_FRAME><TIME_SYSTEM>UTC</TIME_SYSTEM><MEAN_ELEMENT_THEORY>SGP4</MEAN_ELEMENT_THEORY></metadata><data><meanElements><EPOCH>2024-01-04T03:25:10.738560</EPOCH><MEAN_MOTION>14.34217969</MEAN_MOTION><ECCENTRICITY>.0002297</ECCENTRICITY><INCLINATION>86.3958</INCLINATION><RA_OF_ASC_NODE>39.2355</RA_OF_ASC_NODE><ARG_OF_PERICENTER>88.7396</ARG_OF_PERICENTER><MEAN_ANOMALY>271.4063</MEAN_ANOMALY></meanElements><tleParameters><EPHEMERIS_TYPE>0</EPHEMERIS_TYPE><CLASSIFICATION_TYPE>U</CLASSIFICATION_TYPE><NORAD_CAT_ID>42957</NORAD_CAT_ID><ELEMENT_SET_NO>999</ELEMENT_SET_NO><REV_AT_EPOCH>32649</REV_AT_EPOCH><BSTAR>.98294E-4</BSTAR><MEAN_MOTION_DOT>.295E-5</MEAN_MOTION_DOT><MEAN_MOTION_DDOT>0</MEAN_MOTION_DDOT></tleParameters></data></segment></body></omm>
<omm id="CCSDS_OMM_VERS" version="2.0">
<header><CREATION_DATE/><ORIGINATOR/></header><body><segment><metadata><OBJECT_NAME>IRIDIUM 129</OBJECT_NAME><OBJECT_ID>2017-061D</OBJECT_ID><CENTER_NAME>EARTH</CENTER_NAME><REF_FRAME>TEME</REF_FRAME><TIME_SYSTEM>UTC</TIME_SYSTEM><MEAN_ELEMENT_THEORY>SGP4</MEAN_ELEMENT_THEORY></metadata><data><meanElements><EPOCH>2024-01-03T14:37:58.476576</EPOCH><MEAN_MOTION>14.34219572</MEAN_MOTION><ECCENTRICITY>.0002351</ECCENTRICITY><INCLINATION>86.3959</INCLINATION><RA_OF_ASC_NODE>39.5161</RA_OF_ASC_NODE><ARG_OF_PERICENTER>90.7655</ARG_OF_PERICENTER><MEAN_ANOMALY>269.3811</MEAN_ANOMALY></meanElements><tleParameters><EPHEMERIS_TYPE>0</EPHEMERIS_TYPE><CLASSIFICATION_TYPE>U</CLASSIFICATION_TYPE><NORAD_CAT_ID>42958</NORAD_CAT_ID><ELEMENT_SET_NO>999</ELEMENT_SET_NO><REV_AT_EPOCH>32643</REV_AT_EPOCH><BSTAR>.9469E-4</BSTAR><MEAN_MOTION_DOT>.285E-5</MEAN_MOTION_DOT><MEAN_MOTION_DDOT>0</MEAN_MOTION_DDOT></tleParameters></data></segment></body></omm>

</ndm>
